{
  "name": "SATGUS",
  "line1": "1 62713U 25009DJ  25302.16942572  .00009836  00000+0  85388-3 0  9993",
  "line2": "2 62713  97.7249  20.7867 0002866 152.7511 207.3861 14.97232729 42945",
  "fetched_at": "2025-10-30T00:18:44.107740+00:00"
}